GALAXY 16 (G-16)        
1 29236U 06023A   26160.46081001 -.00000110  00000+0  00000+0 0  9999
2 29236   0.0315 124.8985 0002624 314.6408 245.1920  1.00271496 72899
EUTELSAT 33F            
1 29270U 06032A   26160.49103233  .00000173  00000+0  00000+0 0  9990
2 29270   1.6406  82.3291 0003362 352.6331  32.8111  1.00275097 47234
JCSAT-3A                
1 29272U 06033A   26160.50981453 -.00000328  00000+0  00000+0 0  9996
2 29272   0.0096 317.9750 0002053 130.4132 121.0206  1.00269680 47662
KOREASAT 5 (MUGUNGWHA 5)
1 29349U 06034A   26160.50689237 -.00000341  00000+0  00000+0 0  9992
2 29349   1.7644  83.0751 0001407  43.6327  66.7204  1.00271236 41240
DIRECTV 9S              
1 29494U 06043A   26160.46215101 -.00000097  00000+0  00000+0 0  9991
2 29494   2.3998  80.9943 0004998   7.7023 234.3305  1.00271311 51308
OPTUS D1                
1 29495U 06043B   26160.54009241 -.00000167  00000+0  00000+0 0  9995
2 29495   3.0142  79.7484 0003546 354.3464 170.2533  1.00271168 72047
BADR-4                  
1 29526U 06051A   26155.74309133  .00000167  00000+0  00000+0 0  9997
2 29526   1.9707  81.2738 0007892 161.5231 306.4291  1.00450212 51145
WILDBLUE-1              
1 29643U 06054A   26160.46584491 -.00000032  00000+0  00000+0 0  9999
2 29643   2.7821  80.5780 0001440   0.7024 233.0637  1.00272235 53718
SKYNET 5A               
1 30794U 07007B   26160.14672435 -.00000256  00000+0  00000+0 0  9996
2 30794   5.2812  73.8374 0003964   9.7627 321.9652  1.00272082 70612
ANIK F3                 
1 31102U 07009A   26160.46853590  .00000016  00000+0  00000+0 0  9993
2 31102   1.1764  83.9422 0002597 356.8652 226.9742  1.00271125 46487
ASTRA 1L                
1 31306U 07016A   26160.40829302 -.00000167  00000+0  00000+0 0  9993
2 31306   1.3007  81.6413 0005365   6.6738 291.9658  1.00271294 44901
GALAXY 17 (G-17)        
1 31307U 07016B   26160.43901279 -.00000190  00000+0  00000+0 0  9997
2 31307   2.9516  79.9973 0004834  16.8718 234.0007  1.00271287 69721
INTELSAT 11 (IS-11)     
1 32253U 07044B   26160.54287780 -.00000244  00000+0  00000+0 0  9995
2 32253   3.5446  78.7612 0001946  84.8250  89.1889  0.99053555 68375
WGS F1 (USA 195)        
1 32258U 07046A   26160.47605219 -.00000250  00000+0  00000+0 0  9992
2 32258   0.0449  95.7904 0000211 349.1213 301.8391  1.00270267 52254
SKYNET 5B               
1 32294U 07056B   26159.92975330  .00000155  00000+0  00000+0 0  9998
2 32294   5.2304  73.6046 0003963 358.6636 184.8384  1.00270759 68113
ASTRA 4A                
1 32299U 07057A   26160.34280742  .00000049  00000+0  00000+0 0  9990
2 32299   0.0180 315.4326 0002312 124.2103 306.3003  1.00270053 51561
HORIZONS-2              
1 32388U 07063B   26160.39849963 -.00000237  00000+0  00000+0 0  9997
2 32388   2.5810  80.7204 0003940 356.2390 250.5084  1.00271450 67734
THURAYA-3               
1 32404U 08001A   26160.14455767 -.00000106  00000+0  00000+0 0  9992
2 32404   5.9751  35.7825 0001301 154.0511 203.3854  1.00008580 67408
THOR 5                  
1 32487U 08006A   26160.34168073  .00000008  00000+0  00000+0 0  9991
2 32487   0.0375 257.1866 0002536 190.1875 292.6122  1.00272946 67236
AMC-14                  
1 32708U 08011A   26156.67620516 -.00000014  00000+0  00000+0 0  9997
2 32708  23.9919  20.6590 0045826   6.6193 172.4980  1.00353185 68053
DIRECTV 11              
1 32729U 08013A   26160.05357880 -.00000109  00000+0  00000+0 0  9995
2 32729   0.0372 171.9066 0000327 221.7276 143.9123  1.00271306 45514
ICO G1                  
1 32763U 08016A   26160.33786369 -.00000158  00000+0  00000+0 0  9999
2 32763   5.5335  36.1733 0002307  26.7842 223.5161  1.00271182 66462
VINASAT-1               
1 32767U 08018A   26160.51059454 -.00000311  00000+0  00000+0 0  9994
2 32767   0.0262 295.3189 0001172 151.2012 127.1343  1.00271098 66514
STAR ONE C2             
1 32768U 08018B   26160.40023299 -.00000260  00000+0  00000+0 0  9994
2 32768   1.2201  82.5331 0002650   0.8220 253.5195  1.00272272 66578
AMOS-3                  
1 32794U 08022A   26160.23308624  .00000171  00000+0  00000+0 0  9997
2 32794   0.4337  86.3646 0001958  65.2307 223.0242  1.00471871 82254
GALAXY 18 (G-18)        
1 32951U 08024A   26160.47072078  .00000042  00000+0  00000+0 0  9998
2 32951   0.0168 306.8925 0003153 143.3934 214.0232  1.00272571 45771
ZHONGXING-9             
1 33051U 08028A   26160.50273237 -.00000232  00000+0  00000+0 0  9990
2 33051   0.7480  85.4542 0004550 332.0023 113.8018  1.00272867 65969
SKYNET 5C               
1 33055U 08030A   26160.40967970 -.00000124  00000+0  00000+0 0  9990
2 33055   3.7680  77.1314 0004080  11.5595 298.7894  1.00270198 65874
TURKSAT 3A              
1 33056U 08030B   26160.20754779  .00000163  00000+0  00000+0 0  9992
2 33056   0.0365  74.3056 0005217 353.4654 306.5224  1.00273372 52276
INTELSAT 25 (IS-25)     
1 33153U 08034A   26159.87418093 -.00000246  00000+0  00000+0 0  9994
2 33153   2.6860  80.4286 0001903  35.5606 254.5892  0.99020453 65609
ECHOSTAR 11             
1 33207U 08035A   26160.46505529 -.00000041  00000+0  00000+0 0  9996
2 33207   0.9841  84.2676 0002322 341.8930 249.3050  1.00271595 51132
SUPERBIRD-C2            
1 33274U 08038A   26160.51137454 -.00000289  00000+0  00000+0 0  9991
2 33274   2.3402  81.3576 0005985  23.5075 113.1122  1.00270919105658
