OBJECT_NAME,OBJECT_ID,EPOCH,MEAN_MOTION,ECCENTRICITY,INCLINATION,RA_OF_ASC_NODE,ARG_OF_PERICENTER,MEAN_ANOMALY,EPHEMERIS_TYPE,CLASSIFICATION_TYPE,NORAD_CAT_ID,ELEMENT_SET_NO,REV_AT_EPOCH,BSTAR,MEAN_MOTION_DOT,MEAN_MOTION_DDOT
GALAXY 16 (G-16),2006-023A,2026-06-09T11:03:33.984864,1.00271496,.0002624,0.0315,124.8985,314.6408,245.1920,0,U,29236,999,7289,0,-.11E-5,0
EUTELSAT 33F,2006-032A,2026-06-09T11:47:05.193312,1.00275097,.0003362,1.6406,82.3291,352.6331,32.8111,0,U,29270,999,4723,0,.173E-5,0
JCSAT-3A,2006-033A,2026-06-09T12:14:07.975392,1.00269680,.0002053,0.0096,317.9750,130.4132,121.0206,0,U,29272,999,4766,0,-.328E-5,0
KOREASAT 5 (MUGUNGWHA 5),2006-034A,2026-06-09T12:09:55.500768,1.00271236,.0001407,1.7644,83.0751,43.6327,66.7204,0,U,29349,999,4124,0,-.341E-5,0
DIRECTV 9S,2006-043A,2026-06-09T11:05:29.847264,1.00271311,.0004998,2.3998,80.9943,7.7023,234.3305,0,U,29494,999,5130,0,-.97E-6,0
OPTUS D1,2006-043B,2026-06-09T12:57:43.984224,1.00271168,.0003546,3.0142,79.7484,354.3464,170.2533,0,U,29495,999,7204,0,-.167E-5,0
BADR-4,2006-051A,2026-06-04T17:50:03.090912,1.00450212,.00078927,1.9707,81.2738,161.5231,306.4291,0,U,29526,999,5114,0,.167E-5,0
WILDBLUE-1,2006-054A,2026-06-09T11:10:49.000224,1.00272235,.000144,2.7821,80.5780,0.7024,233.0637,0,U,29643,999,5371,0,-.32E-6,0
SKYNET 5A,2007-007B,2026-06-09T03:31:16.983840,1.00272082,.00039644,5.2812,73.8374,9.7627,321.9652,0,U,30794,999,7061,0,-.256E-5,0
ANIK F3,2007-009A,2026-06-09T11:14:41.501760,1.00271125,.0002597,1.1764,83.9422,356.8652,226.9742,0,U,31102,999,4648,0,.16E-6,0
ASTRA 1L,2007-016A,2026-06-09T09:47:56.516928,1.00271294,.0005365,1.3007,81.6413,6.6738,291.9658,0,U,31306,999,4490,0,-.167E-5,0
GALAXY 17 (G-17),2007-016B,2026-06-09T10:32:10.705056,1.00271287,.0004834,2.9516,79.9973,16.8718,234.0007,0,U,31307,999,6972,0,-.19E-5,0
INTELSAT 11 (IS-11),2007-044B,2026-06-09T13:01:44.641920,0.99053555,.0001946,3.5446,78.7612,84.8250,89.1889,0,U,32253,999,6837,0,-.244E-5,0
WGS F1 (USA 195),2007-046A,2026-06-09T11:25:30.909216,1.00270267,.0000211,0.0449,95.7904,349.1213,301.8391,0,U,32258,999,5225,0,-.25E-5,0
SKYNET 5B,2007-056B,2026-06-08T22:18:50.685120,1.00270759,.00039635,5.2304,73.6046,358.6636,184.8384,0,U,32294,999,6811,0,.155E-5,0
ASTRA 4A,2007-057A,2026-06-09T08:13:38.561088,1.00270053,.0002312,0.0180,315.4326,124.2103,306.3003,0,U,32299,999,5156,0,.49E-6,0
HORIZONS-2,2007-063B,2026-06-09T09:33:50.368032,1.00271450,.000394,2.5810,80.7204,356.2390,250.5084,0,U,32388,999,6773,0,-.237E-5,0
THURAYA-3,2008-001A,2026-06-09T03:28:09.782688,1.00008580,.00013013,5.9751,35.7825,154.0511,203.3854,0,U,32404,999,6740,0,-.106E-5,0
THOR 5,2008-006A,2026-06-09T08:12:01.215072,1.00272946,.0002536,0.0375,257.1866,190.1875,292.6122,0,U,32487,999,6723,0,.8E-7,0
AMC-14,2008-011A,2026-06-05T16:13:44.125824,1.00353185,.00458262,23.9919,20.6590,6.6193,172.4980,0,U,32708,999,6805,0,-.14E-6,0
DIRECTV 11,2008-013A,2026-06-09T01:17:09.208320,1.00271306,.00003272,0.0372,171.9066,221.7276,143.9123,0,U,32729,999,4551,0,-.109E-5,0
ICO G1,2008-016A,2026-06-09T08:06:31.422816,1.00271182,.0002307,5.5335,36.1733,26.7842,223.5161,0,U,32763,999,6646,0,-.158E-5,0
VINASAT-1,2008-018A,2026-06-09T12:15:15.368256,1.00271098,.0001172,0.0262,295.3189,151.2012,127.1343,0,U,32767,999,6651,0,-.311E-5,0
STAR ONE C2,2008-018B,2026-06-09T09:36:20.130336,1.00272272,.000265,1.2201,82.5331,0.8220,253.5195,0,U,32768,999,6657,0,-.26E-5,0
AMOS-3,2008-022A,2026-06-09T05:35:38.651136,1.00471871,.0001958,0.4337,86.3646,65.2307,223.0242,0,U,32794,999,8225,0,.171E-5,0
GALAXY 18 (G-18),2008-024A,2026-06-09T11:17:50.275392,1.00272571,.0003153,0.0168,306.8925,143.3934,214.0232,0,U,32951,999,4577,0,.42E-6,0
ZHONGXING-9,2008-028A,2026-06-09T12:03:56.076768,1.00272867,.000455,0.7480,85.4542,332.0023,113.8018,0,U,33051,999,6596,0,-.232E-5,0
SKYNET 5C,2008-030A,2026-06-09T09:49:56.326080,1.00270198,.000408,3.7680,77.1314,11.5595,298.7894,0,U,33055,999,6587,0,-.124E-5,0
TURKSAT 3A,2008-030B,2026-06-09T04:58:52.129056,1.00273372,.0005217,0.0365,74.3056,353.4654,306.5224,0,U,33056,999,5227,0,.163E-5,0
INTELSAT 25 (IS-25),2008-034A,2026-06-08T20:58:49.232352,0.99020453,.00019036,2.6860,80.4286,35.5606,254.5892,0,U,33153,999,6560,0,-.246E-5,0
ECHOSTAR 11,2008-035A,2026-06-09T11:09:40.777056,1.00271595,.0002322,0.9841,84.2676,341.8930,249.3050,0,U,33207,999,5113,0,-.41E-6,0
SUPERBIRD-C2,2008-038A,2026-06-09T12:16:22.760256,1.00270919,.0005985,2.3402,81.3576,23.5075,113.1122,0,U,33274,999,10565,0,-.289E-5,0
